[{"OBJECT_ID":"2000-011A","OBJECT_NAME":"GARUDA 1","NORAD_CAT_ID":"26089","OBJECT_TYPE":"PAYLOAD","PERIOD":"1441.429","INCLINATION":"1.2856","APOGEE":"35912.374","PERIGEE":"35869.437","ECCENTRICITY":"0.0005079","MEAN_MOTION":"0.99900847","TLE_LINE1":"1 26089U 00011A   16238.86923847 -.00000105 +00000-0 +00000-0 0  9991","TLE_LINE2":"2 26089 001.2856 134.4562 0005079 050.4465 185.1813 00.99900847005861","LAUNCH_DATE":"2000-02-12","LAUNCH_SITE":"TYURATAM MISSILE AND SPACE COMPLEX","OWNER":"INDONESIA","ORBIT_TYPE":"Geosynchronous","OPERATIONAL_STATUS":"Nonoperational","satInfo":{"lng":30.591129369578205,"lat":-2.9493384586481666,"elevation":-11.420154879954408,"azimuth":284.4088706304218,"range":43083.94362754154,"height":35908.76872775459,"velocity":3.0694784569979596},"x":153,"y":-254,"dx":2.642270984882786,"dy":-1.5620825971827246},{"OBJECT_ID":"2000-012A","OBJECT_NAME":"SUPERBIRD 4","NORAD_CAT_ID":"26095","OBJECT_TYPE":"PAYLOAD","PERIOD":"1436.128","INCLINATION":"0.0517","APOGEE":"35792.239","PERIGEE":"35782.195","ECCENTRICITY":"0.0001191","MEAN_MOTION":"1.00269571","TLE_LINE1":"1 26095U 00012A   16239.36228272 -.00000122  00000-0  00000+0 0  9993","TLE_LINE2":"2 26095   0.0517 267.5965 0001191 290.6437  69.1949  1.00269571 60511","LAUNCH_DATE":"2000-02-18","LAUNCH_SITE":"FRENCH GUIANA","OWNER":"JAPAN","ORBIT_TYPE":"Geosynchronous","OPERATIONAL_STATUS":"Operational","satInfo":{"lng":-56.132429135170796,"lat":2.038470974773655,"elevation":-6.572536789138337,"azimuth":11.132429135170781,"range":42441.838859108524,"height":35811.435099497205,"velocity":3.0737842401886555},"x":-249,"y":-164,"dx":1.712943840056382,"dy":2.552248607805487},{"OBJECT_ID":"2000-016A","OBJECT_NAME":"ASIASTAR","NORAD_CAT_ID":"26107","OBJECT_TYPE":"PAYLOAD","PERIOD":"1436.110","INCLINATION":"1.0635","APOGEE":"35804.454","PERIGEE":"35769.272","ECCENTRICITY":"0.0004172","MEAN_MOTION":"1.00270834","TLE_LINE1":"1 26107U 00016A   16238.86176439 -.00000360 +00000-0 +00000-0 0  9997","TLE_LINE2":"2 26107 001.0635 081.9467 0004172 079.6805 228.1817 01.00270834060007","LAUNCH_DATE":"2000-03-21","LAUNCH_SITE":"FRENCH GUIANA","OWNER":"UNITED STATES OF AMERICA","ORBIT_TYPE":"Geosynchronous","OPERATIONAL_STATUS":"Operational","satInfo":{"lng":48.58937807678193,"lat":-0.3045034148476288,"elevation":-8.867628378930801,"azimuth":266.41062192321806,"range":42692.0759203434,"height":35804.240692127816,"velocity":3.0737060615984446},"x":225,"y":-194,"dx":2.0331056874982543,"dy":-2.3052440687634945},{"OBJECT_ID":"2000-028A","OBJECT_NAME":"EUTE 36A (EUTE W4)","NORAD_CAT_ID":"26369","OBJECT_TYPE":"PAYLOAD","PERIOD":"1436.086","INCLINATION":"0.4028","APOGEE":"35804.435","PERIGEE":"35768.351","ECCENTRICITY":"0.0004279","MEAN_MOTION":"1.00272511","TLE_LINE1":"1 26369U 00028A   16239.01477921 -.00000244  00000-0  00000+0 0  9998","TLE_LINE2":"2 26369   0.4028  81.3753 0004279  88.5176 258.6168  1.00272511 59566","LAUNCH_DATE":"2000-05-24","LAUNCH_SITE":"AIR FORCE EASTERN TEST RANGE","OWNER":"EUROPEAN TELECOMMUNICATIONS SATELLITE ORGANIZATION (EUTELSAT)","ORBIT_TYPE":"Geosynchronous","OPERATIONAL_STATUS":"Operational","satInfo":{"lng":61.90153556855402,"lat":0.40127938102679095,"elevation":-8.180202090822359,"azimuth":253.09846443144596,"range":42604.51721726789,"height":35793.93190773155,"velocity":3.0741202462231585},"x":265,"y":-138,"dx":1.4478744824995902,"dy":-2.7118028636251705},{"OBJECT_ID":"2000-043B","OBJECT_NAME":"BLOCK DM-SL R/B","NORAD_CAT_ID":"26452","OBJECT_TYPE":"ROCKET BODY","PERIOD":"664.364","INCLINATION":"1.9735","APOGEE":"35779.183","PERIGEE":"1906.779","ECCENTRICITY":"0.6715088","MEAN_MOTION":"2.16748597","TLE_LINE1":"1 26452U 00043B   16238.85285457 -.00000098 +00000-0 +00000-0 0  9998","TLE_LINE2":"2 26452 001.9735 353.8141 6715088 103.4601 017.9886 02.16748597126974","LAUNCH_DATE":"2000-07-28","LAUNCH_SITE":"SEA LAUNCH","OWNER":"SEA LAUNCH DEMO","ORBIT_TYPE":"Highly Elliptical Orbit","OPERATIONAL_STATUS":"N/A, derelict rocket body","satInfo":{"lng":-94.27797193422323,"lat":-0.937084111307258,"elevation":-15.701144906453969,"azimuth":49.27797193422321,"range":24939.539820353013,"height":17634.02304319198,"velocity":4.170680068378572},"x":-148,"y":10,"dx":-0.3111133028566177,"dy":4.159060079579993},{"OBJECT_ID":"2000-046A","OBJECT_NAME":"BRAZILSAT B4","NORAD_CAT_ID":"26469","OBJECT_TYPE":"PAYLOAD","PERIOD":"1436.079","INCLINATION":"1.0437","APOGEE":"35796.320","PERIGEE":"35776.174","ECCENTRICITY":"0.0002389","MEAN_MOTION":"1.00273033","TLE_LINE1":"1 26469U 00046A   16238.54788809 -.00000238  00000-0  00000+0 0  9999","TLE_LINE2":"2 26469   1.0437  86.8286 0002389  67.2583 293.4031  1.00273033 58717","LAUNCH_DATE":"2000-08-17","LAUNCH_SITE":"FRENCH GUIANA","OWNER":"BRAZIL","ORBIT_TYPE":"Geosynchronous","OPERATIONAL_STATUS":"Operational","satInfo":{"lng":-99.56681577591377,"lat":-1.2447408005228122,"elevation":-9.785589187716074,"azimuth":54.56681577591374,"range":42788.385533614186,"height":35797.64887173124,"velocity":3.0742491230479105},"x":-296,"y":48,"dx":-0.5109329967907749,"dy":3.0314938798142483},{"OBJECT_ID":"2000-046B","OBJECT_NAME":"NILESAT 102","NORAD_CAT_ID":"26470","OBJECT_TYPE":"PAYLOAD","PERIOD":"1436.091","INCLINATION":"1.0652","APOGEE":"35810.118","PERIGEE":"35762.869","ECCENTRICITY":"0.0005603","MEAN_MOTION":"1.00272152","TLE_LINE1":"1 26470U 00046B   16239.13452203 -.00000086  00000-0  00000+0 0  9994","TLE_LINE2":"2 26470   1.0652  84.8581 0005603 104.8834 186.5051  1.00272152 58729","LAUNCH_DATE":"2000-08-17","LAUNCH_SITE":"FRENCH GUIANA","OWNER":"EGYPT","ORBIT_TYPE":"Geosynchronous","OPERATIONAL_STATUS":"Operational","satInfo":{"lng":64.5854361526202,"lat":0.4610135730722695,"elevation":-8.113216984465458,"azimuth":250.4145638473798,"range":42640.240639935684,"height":35836.68807607749,"velocity":3.072247778497969},"x":271,"y":-126,"dx":1.3185004059001142,"dy":-2.7749347906080497},{"OBJECT_ID":"2000-054A","OBJECT_NAME":"ASTRA 2B","NORAD_CAT_ID":"26494","OBJECT_TYPE":"PAYLOAD","PERIOD":"1436.132","INCLINATION":"1.6058","APOGEE":"35809.118","PERIGEE":"35765.460","ECCENTRICITY":"0.0005177","MEAN_MOTION":"1.00269316","TLE_LINE1":"1 26494U 00054A   16238.78927867 +.00000124 +00000-0 +00000-0 0  9995","TLE_LINE2":"2 26494 001.6058 079.9178 0005177 038.7572 178.9249 01.00269316010964","LAUNCH_DATE":"2000-09-14","LAUNCH_SITE":"FRENCH GUIANA","OWNER":"SOCIÉTÉ EUROPÉENNE DES SATELLITES","ORBIT_TYPE":"Geosynchronous","OPERATIONAL_STATUS":"Operational","satInfo":{"lng":96.48041696051651,"lat":2.7301616075705915,"elevation":-5.905124178970288,"azimuth":218.5195830394835,"range":42305.571800373975,"height":35750.715804046944,"velocity":3.076687175023261},"x":298,"y":33,"dx":-0.34724603898703554,"dy":-3.057028649090556},{"OBJECT_ID":"2000-054B","OBJECT_NAME":"AMC-7 (GE-7)","NORAD_CAT_ID":"26495","OBJECT_TYPE":"PAYLOAD","PERIOD":"1436.105","INCLINATION":"0.0028","APOGEE":"35792.832","PERIGEE":"35780.714","ECCENTRICITY":"0.0001437","MEAN_MOTION":"1.00271156","TLE_LINE1":"1 26495U 00054B   16238.44662912  .00000061  00000-0  00000+0 0  9995","TLE_LINE2":"2 26495   0.0028  93.5608 0001437 113.0378 153.3940  1.00271156 58334","LAUNCH_DATE":"2000-09-14","LAUNCH_SITE":"FRENCH GUIANA","OWNER":"SOCIÉTÉ EUROPÉENNE DES SATELLITES","ORBIT_TYPE":"Geosynchronous","OPERATIONAL_STATUS":"Operational","satInfo":{"lng":-117.26290650586465,"lat":0.11669984802968256,"elevation":-8.46393066803249,"azimuth":72.26290650586463,"range":42608.246007531736,"height":35766.1378990363,"velocity":3.0756481612535653},"x":-267,"y":134,"dx":-1.4088749614808471,"dy":2.733986641286818},{"OBJECT_ID":"2000-059A","OBJECT_NAME":"NSS 11 (AAP-1)","NORAD_CAT_ID":"26554","OBJECT_TYPE":"PAYLOAD","PERIOD":"1436.120","INCLINATION":"0.0579","APOGEE":"35795.737","PERIGEE":"35778.381","ECCENTRICITY":"0.0002058","MEAN_MOTION":"1.00270135","TLE_LINE1":"1 26554U 00059A   16238.80514263 -.00000372  00000-0  00000+0 0  9997","TLE_LINE2":"2 26554   0.0579 289.4616 0002058 210.6722 232.3917  1.00270135 58252","LAUNCH_DATE":"2000-10-01","LAUNCH_SITE":"TYURATAM MISSILE AND SPACE COMPLEX","OWNER":"SOCIÉTÉ EUROPÉENNE DES SATELLITES","ORBIT_TYPE":"Geosynchronous","OPERATIONAL_STATUS":"Operational","satInfo":{"lng":48.53827095437356,"lat":1.1901063533065348,"elevation":-7.407032483532083,"azimuth":266.46172904562644,"range":42523.30638432812,"height":35799.4162588703,"velocity":3.074180936619955},"x":225,"y":-194,"dx":2.035475551514102,"dy":-2.303785517418214},{"OBJECT_ID":"2000-060A","OBJECT_NAME":"NSAT 110","NORAD_CAT_ID":"26559","OBJECT_TYPE":"PAYLOAD","PERIOD":"1436.018","INCLINATION":"0.0413","APOGEE":"35787.181","PERIGEE":"35782.948","ECCENTRICITY":"5.02e-05","MEAN_MOTION":"1.00277249","TLE_LINE1":"1 26559U 00060A   16239.41875215 -.00000380  00000-0  00000+0 0  9998","TLE_LINE2":"2 26559   0.0413 288.1903 0000502  63.0790 244.6471  1.00277249 58193","LAUNCH_DATE":"2000-10-06","LAUNCH_SITE":"FRENCH GUIANA","OWNER":"JAPAN","ORBIT_TYPE":"Geosynchronous","OPERATIONAL_STATUS":"Operational","satInfo":{"lng":52.41095439887465,"lat":1.0349122532629986,"elevation":-7.55881040392836,"azimuth":262.58904560112535,"range":42541.54721207045,"height":35800.613022471545,"velocity":3.074239360524844},"x":238,"y":-179,"dx":1.875266564230752,"dy":-2.436046583889232}]